ONEWEB-0520             
1 54138U 22138AB  25348.28850707  .00000019  00000+0  16133-4 0  9993
2 54138  87.9210 341.7472 0002006  82.4392 277.6968 13.19724760152434
ONEWEB-0521             
1 54139U 22138AC  25348.24586252  .00000032  00000+0  48648-4 0  9992
2 54139  87.9210 341.7402 0001843  95.8250 264.3093 13.19724555152374
ONEWEB-0522             
1 54140U 22138AD  25348.22532293  .00000055  00000+0  10537-3 0  9998
2 54140  87.9208 341.7455 0001950  85.7318 274.4038 13.19723881152410
ONEWEB-0523             
1 54141U 22138AE  25348.33541420  .00000127  00000+0  28000-3 0  9997
2 54141  87.9203 311.3050 0001163 101.5519 258.5745 13.20769888154909
ONEWEB-0524             
1 54142U 22138AF  25348.32438090  .00000181  00000+0  41343-3 0  9990
2 54142  87.9197 311.3093 0001168  54.0806 306.0436 13.20772023154906
ONEWEB-0525             
1 54143U 22138AG  25348.24428357  .00000131  00000+0  29365-3 0  9992
2 54143  87.9202 341.7618 0002049  82.0490 278.0875 13.19725461152436
ONEWEB-0526             
1 54144U 22138AH  25348.27744750  .00000050  00000+0  92936-4 0  9999
2 54144  87.9211 341.7438 0001829  84.8582 275.2760 13.19724376152418
ONEWEB-0529             
1 54145U 22138AJ  25347.97734142  .00000015  00000+0  59787-5 0  9999
2 54145  87.9197 341.8306 0001959  81.6936 278.4419 13.19725015152393
